GAOFEN-11 01            
1 43585U 18063A   26203.93456709  .00012366  00000+0  17758-3 0  9997
2 43585  97.1271 270.7320 0004103 170.7757 189.3575 15.56239536445902
ICESAT-2                
1 43613U 18070A   26203.84152407  .00009903  00000+0  35954-3 0  9996
2 43613  92.0084 300.6145 0004655  41.2443 318.9157 15.28272646437909
HYSIS                   
1 43719U 18096A   26203.94139799  .00000729  00000+0  10659-3 0  9993
2 43719  97.9821 270.4056 0001651  74.3423 285.7970 14.78620594412700
KAZSTSAT                
1 43783U 18099AB  26203.52148855  .00000185  00000+0  19413-4 0  9998
2 43783  97.4303 233.8591 0007190 309.7222  50.3368 14.99960745416602
SAUDISAT 5A             
1 43831U 18102A   26203.98109160  .00006085  00000+0  22262-3 0  9993
2 43831  97.3047 264.8755 0009641  18.3335 341.8250 15.28378139421143
SAUDISAT 5B             
1 43833U 18102C   26203.92866819  .00005681  00000+0  20646-3 0  9995
2 43833  97.3157 267.9585 0010462  19.8286 340.3358 15.28617408421256
GAOFEN-10R              
1 44622U 19066A   26203.98026061  .00001086  00000+0  14012-3 0  9990
2 44622  98.0513 157.8236 0006422  31.6818 328.4781 14.83070188367682
CARTOSAT-3              
1 44804U 19081A   26203.98728221  .00003256  00000+0  15761-3 0  9999
2 44804  97.4286 265.2730 0012269  34.5942 325.6089 15.19219086368901
GAOFEN-12 01            
1 44819U 19082A   26203.96856435  .00000345  00000+0  51699-4 0  9990
2 44819  97.8114 209.4057 0000645  74.4946 285.6338 14.80484169359382
CSG-1                   
1 44873U 19092A   26203.96695198  .00000369  00000+0  52874-4 0  9990
2 44873  97.8900  27.0535 0001462  94.7475 265.3905 14.82161512356771
NEMO-HD                 
1 46277U 20061F   26203.94745366  .00011994  00000+0  25389-3 0  9995
2 46277  97.1900 265.5511 0001092 118.3349 241.8011 15.45262460327509
SENTINEL-6A             
1 46984U 20086A   26203.84425964 -.00000062  00000+0 -56716-5 0  9991
2 46984  66.0410  60.9926 0007778 269.5701  90.4423 12.80930270264894
CAS500-1                
1 47932U 21022A   26203.93753825  .00006777  00000+0  31638-3 0  9997
2 47932  97.3853  98.4585 0005892 144.6142 215.5485 15.20133568296198
GAOFEN-12 02            
1 48079U 21026A   26203.98347885  .00000313  00000+0  47978-4 0  9999
2 48079  97.9941 202.0211 0006179 112.2222 247.9646 14.80320374287054
PLEIADES NEO 3          
1 48268U 21034A   26203.97784868  .00001427  00000+0  18790-3 0  9999
2 48268  97.8937 278.2295 0001419  99.4825 260.6548 14.81668531282950
PLEIADES NEO 4          
1 49070U 21073E   26203.94404727  .00000251  00000+0  38456-4 0  9990
2 49070  97.8936 278.1923 0001386  98.5279 261.6091 14.81672159266669
LANDSAT 9               
1 49260U 21088A   26203.90491612  .00000273  00000+0  70721-4 0  9997
2 49260  98.2263 273.6468 0001057  94.8854 265.2465 14.57099549256208
CSG-2                   
1 51444U 22008A   26203.93318222  .00000735  00000+0  98836-4 0  9995
2 51444  97.8904  27.0140 0001535  90.1838 269.9551 14.82150912241887
GAOFEN-12 03            
1 52912U 22069A   26203.95185437  .00000344  00000+0  52112-4 0  9998
2 52912  97.8228  90.9127 0002296  64.4939 295.6511 14.80082920219903
SWOT                    
1 54754U 22173A   26203.85826147  .00000085  00000+0  59307-4 0  9994
2 54754  77.6119 347.1532 0000212  70.7792 289.3382 14.00172751184141
GAOFEN-12 04            
1 57654U 23123A   26203.97311219  .00000867  00000+0  12210-3 0  9993
2 57654  97.9094 121.4536 0003065  33.6467 326.4939 14.79786136157924
PARS 1                  
1 59065U 24039Q   26203.97606587  .00013137  00000+0  26692-3 0  9996
2 59065  97.4847 186.0467 0008730 359.5595   0.5645 15.46417906134176
RESURS-P 4              
1 59371U 24061A   26203.92065431  .00003062  00000+0  10061-3 0  9992
2 59371  97.2758 151.2042 0003200  78.7865 281.3736 15.32313232129238
LEGION 1                
1 59625U 24081A   26203.85133267  .00003542  00000+0  18320-3 0  9990
2 59625  97.5002 281.3303 0007957 237.6866 122.3597 15.16879713122943
LEGION 2                
1 59626U 24081B   26203.88182798  .00003877  00000+0  20016-3 0  9993
2 59626  97.5003 281.4571 0010852 204.3443 155.7279 15.16860892122959
ALOS-4 (DAICHI-4)       
1 60182U 24123A   26203.93630182  .00001280  00000+0  17825-3 0  9990
2 60182  97.9221 300.5990 0001569  98.2573 261.8817 14.79475346111163
LEGION 3                
1 60452U 24146A   26203.85017082  .00003274  00000+0  18259-3 0  9991
2 60452  45.0000 199.3558 0007373  16.7191 343.3930 15.15686793107434
LEGION 4                
1 60453U 24146B   26203.71793498  .00004025  00000+0  22105-3 0  9999
2 60453  45.0019 291.9320 0009541 159.8062 200.3196 15.15720677106262
SENTINEL-2C             
1 60989U 24157A   26203.69704123  .00000058  00000+0  38607-4 0  9996
2 60989  98.5678 277.9742 0001037 108.5702 251.5594 14.30817204 98063
IONOSFERA-M 1           
1 61735U 24199A   26203.91928427  .00000027  00000+0  31861-4 0  9993
2 61735  98.7125  76.7063 0002030  62.1153 298.0231 14.22760233132784
