OBJECT_NAME,OBJECT_ID,EPOCH,MEAN_MOTION,ECCENTRICITY,INCLINATION,RA_OF_ASC_NODE,ARG_OF_PERICENTER,MEAN_ANOMALY,EPHEMERIS_TYPE,CLASSIFICATION_TYPE,NORAD_CAT_ID,ELEMENT_SET_NO,REV_AT_EPOCH,BSTAR,MEAN_MOTION_DOT,MEAN_MOTION_DDOT
GAOFEN-11 01,2018-063A,2026-07-22T22:25:46.596576,15.56239536,.00041039,97.1271,270.7320,170.7757,189.3575,0,U,43585,999,44590,.17757595E-3,.12366E-3,0
ICESAT-2,2018-070A,2026-07-22T20:11:47.679648,15.28272646,.00046553,92.0084,300.6145,41.2443,318.9157,0,U,43613,999,43790,.35954066E-3,.9903E-4,0
HYSIS,2018-096A,2026-07-22T22:35:36.786336,14.78620594,.00016516,97.9821,270.4056,74.3423,285.7970,0,U,43719,999,41270,.10659013E-3,.729E-5,0
KAZSTSAT,2018-099AB,2026-07-22T12:30:56.610720,14.99960745,.00071907,97.4303,233.8591,309.7222,50.3368,0,U,43783,999,41660,.19413296E-4,.185E-5,0
SAUDISAT 5A,2018-102A,2026-07-22T23:32:46.314240,15.28378139,.00096416,97.3047,264.8755,18.3335,341.8250,0,U,43831,999,42114,.22261878E-3,.6085E-4,0
SAUDISAT 5B,2018-102C,2026-07-22T22:17:16.931616,15.28617408,.0010462,97.3157,267.9585,19.8286,340.3358,0,U,43833,999,42125,.20646022E-3,.5681E-4,0
GAOFEN-10R,2019-066A,2026-07-22T23:31:34.516704,14.83070188,.00064225,98.0513,157.8236,31.6818,328.4781,0,U,44622,999,36768,.1401212E-3,.1086E-4,0
CARTOSAT-3,2019-081A,2026-07-22T23:41:41.182944,15.19219086,.00122692,97.4286,265.2730,34.5942,325.6089,0,U,44804,999,36890,.15760525E-3,.3256E-4,0
GAOFEN-12 01,2019-082A,2026-07-22T23:14:43.959840,14.80484169,.00006456,97.8114,209.4057,74.4946,285.6338,0,U,44819,999,35938,.51699439E-4,.345E-5,0
CSG-1,2019-092A,2026-07-22T23:12:24.651072,14.82161512,.00014624,97.8900,27.0535,94.7475,265.3905,0,U,44873,999,35677,.52874065E-4,.369E-5,0
NEMO-HD,2020-061F,2026-07-22T22:44:19.996224,15.45262460,.00010921,97.1900,265.5511,118.3349,241.8011,0,U,46277,999,32750,.25389017E-3,.11994E-3,0
SENTINEL-6A,2020-086A,2026-07-22T20:15:44.032896,12.80930270,.00077782,66.0410,60.9926,269.5701,90.4423,0,U,46984,999,26489,-.5671586E-5,-.62E-6,0
CAS500-1,2021-022A,2026-07-22T22:30:03.304800,15.20133568,.00058927,97.3853,98.4585,144.6142,215.5485,0,U,47932,999,29619,.31637842E-3,.6777E-4,0
GAOFEN-12 02,2021-026A,2026-07-22T23:36:12.572640,14.80320374,.0006179,97.9941,202.0211,112.2222,247.9646,0,U,48079,999,28705,.47978082E-4,.313E-5,0
PLEIADES NEO 3,2021-034A,2026-07-22T23:28:06.125952,14.81668531,.00014191,97.8937,278.2295,99.4825,260.6548,0,U,48268,999,28295,.18789538E-3,.1427E-4,0
PLEIADES NEO 4,2021-073E,2026-07-22T22:39:25.684128,14.81672159,.00013868,97.8936,278.1923,98.5279,261.6091,0,U,49070,999,26666,.38455796E-4,.251E-5,0
LANDSAT 9,2021-088A,2026-07-22T21:43:04.752768,14.57099549,.00010576,98.2263,273.6468,94.8854,265.2465,0,U,49260,999,25620,.70721309E-4,.273E-5,0
CSG-2,2022-008A,2026-07-22T22:23:46.943808,14.82150912,.00015358,97.8904,27.0140,90.1838,269.9551,0,U,51444,999,24188,.9883638E-4,.735E-5,0
GAOFEN-12 03,2022-069A,2026-07-22T22:50:40.217568,14.80082920,.00022966,97.8228,90.9127,64.4939,295.6511,0,U,52912,999,21990,.52111994E-4,.344E-5,0
SWOT,2022-173A,2026-07-22T20:35:53.791008,14.00172751,.00002129,77.6119,347.1532,70.7792,289.3382,0,U,54754,999,18414,.59307014E-4,.85E-6,0
GAOFEN-12 04,2023-123A,2026-07-22T23:21:16.893216,14.79786136,.00030652,97.9094,121.4536,33.6467,326.4939,0,U,57654,999,15792,.12210359E-3,.867E-5,0
PARS 1,2024-039Q,2026-07-22T23:25:32.091168,15.46417906,.00087304,97.4847,186.0467,359.5595,0.5645,0,U,59065,999,13417,.26691897E-3,.13137E-3,0
RESURS-P 4,2024-061A,2026-07-22T22:05:44.532384,15.32313232,.00032001,97.2758,151.2042,78.7865,281.3736,0,U,59371,999,12923,.10061019E-3,.3062E-4,0
LEGION 1,2024-081A,2026-07-22T20:25:55.142688,15.16879713,.00079574,97.5002,281.3303,237.6866,122.3597,0,U,59625,999,12294,.18320275E-3,.3542E-4,0
LEGION 2,2024-081B,2026-07-22T21:09:49.937472,15.16860892,.00108528,97.5003,281.4571,204.3443,155.7279,0,U,59626,999,12295,.20015835E-3,.3877E-4,0
ALOS-4 (DAICHI-4),2024-123A,2026-07-22T22:28:16.477248,14.79475346,.00015693,97.9221,300.5990,98.2573,261.8817,0,U,60182,999,11116,.17824652E-3,.128E-4,0
LEGION 3,2024-146A,2026-07-22T20:24:14.758848,15.15686793,.00073738,45.0000,199.3558,16.7191,343.3930,0,U,60452,999,10743,.18258942E-3,.3274E-4,0
LEGION 4,2024-146B,2026-07-22T17:13:49.582272,15.15720677,.0009541,45.0019,291.9320,159.8062,200.3196,0,U,60453,999,10626,.22104773E-3,.4025E-4,0
SENTINEL-2C,2024-157A,2026-07-22T16:43:44.362272,14.30817204,.00010376,98.5678,277.9742,108.5702,251.5594,0,U,60989,999,9806,.38607079E-4,.58E-6,0
IONOSFERA-M 1,2024-199A,2026-07-22T22:03:46.160928,14.22760233,.00020302,98.7125,76.7063,62.1153,298.0231,0,U,61735,999,13278,.31861279E-4,.27E-6,0
